{
  "type": "FeatureCollection",
  "features": [
    {
      "type": "Feature",
      "properties": {
        "norad_id": 66697,
        "name": "IRIDE FM3",
        "group": "last-30-days",
        "lat": 5.18261433110233,
        "lon": -110.02342511960924,
        "alt_km": 512.9437695936867,
        "timestamp": "2025-12-23T16:57:11.060703+00:00",
        "meta_object_name": "IRIDE FM3",
        "meta_object_id": "2025-276AH",
        "meta_epoch": "2025-12-23T03:31:53.140512",
        "meta_mean_motion": 15.18170055,
        "meta_eccentricity": 0.00012157,
        "meta_inclination": 97.439,
        "meta_ra_of_asc_node": 68.7477,
        "meta_arg_of_pericenter": 153.3805,
        "meta_mean_anomaly": 206.7491,
        "meta_ephemeris_type": 0,
        "meta_classification_type": "U",
        "meta_norad_cat_id": 66697,
        "meta_element_set_no": 999,
        "meta_rev_at_epoch": 370,
        "meta_bstar": 0.00059756617,
        "meta_mean_motion_dot": 0.00012153,
        "meta_mean_motion_ddot": 0,
        "tle_line1": "1 66697U 25276AH  25357.14714283  .00012153  00000+0  59757-3 0  9995",
        "tle_line2": "2 66697  97.4390  68.7477 0001215 153.3805 206.7491 15.18170055  3703"
      },
      "geometry": {
        "type": "Point",
        "coordinates": [
          -110.02342511960924,
          5.18261433110233
        ]
      }
    },
    {
      "type": "Feature",
      "properties": {
        "norad_id": 66698,
        "name": "IRIDE FM4",
        "group": "last-30-days",
        "lat": 79.91266535939744,
        "lon": -63.47020903645021,
        "alt_km": 511.6707268786804,
        "timestamp": "2025-12-23T16:57:11.060713+00:00",
        "meta_object_name": "IRIDE FM4",
        "meta_object_id": "2025-276AJ",
        "meta_epoch": "2025-12-22T15:11:00.371616",
        "meta_mean_motion": 15.16542107,
        "meta_eccentricity": 0.00031447,
        "meta_inclination": 97.4393,
        "meta_ra_of_asc_node": 68.213,
        "meta_arg_of_pericenter": 198.1981,
        "meta_mean_anomaly": 161.914,
        "meta_ephemeris_type": 0,
        "meta_classification_type": "U",
        "meta_norad_cat_id": 66698,
        "meta_element_set_no": 999,
        "meta_rev_at_epoch": 362,
        "meta_bstar": -0.020508134,
        "meta_mean_motion_dot": -0.00379692,
        "meta_mean_motion_ddot": 0,
        "tle_line1": "1 66698U 25276AJ  25356.63264319 -.00379692  00000+0 -20508-1 0  9995",
        "tle_line2": "2 66698  97.4393  68.2130 0003144 198.1981 161.9140 15.16542107  3626"
      },
      "geometry": {
        "type": "Point",
        "coordinates": [
          -63.47020903645021,
          79.91266535939744
        ]
      }
    },
    {
      "type": "Feature",
      "properties": {
        "norad_id": 66699,
        "name": "IRIDE FM5",
        "group": "last-30-days",
        "lat": 74.1486277890595,
        "lon": -83.32437132986969,
        "alt_km": 508.41503208397626,
        "timestamp": "2025-12-23T16:57:11.060727+00:00",
        "meta_object_name": "IRIDE FM5",
        "meta_object_id": "2025-276AK",
        "meta_epoch": "2025-12-23T03:50:05.855136",
        "meta_mean_motion": 15.17414141,
        "meta_eccentricity": 0.00030865,
        "meta_inclination": 97.4403,
        "meta_ra_of_asc_node": 68.7355,
        "meta_arg_of_pericenter": 254.1945,
        "meta_mean_anomaly": 105.8948,
        "meta_ephemeris_type": 0,
        "meta_classification_type": "U",
        "meta_norad_cat_id": 66699,
        "meta_element_set_no": 999,
        "meta_rev_at_epoch": 370,
        "meta_bstar": -0.00016185169,
        "meta_mean_motion_dot": -3.298e-05,
        "meta_mean_motion_ddot": 0,
        "tle_line1": "1 66699U 25276AK  25357.15978999 -.00003298  00000+0 -16185-3 0  9994",
        "tle_line2": "2 66699  97.4403  68.7355 0003086 254.1945 105.8948 15.17414141  3700"
      },
      "geometry": {
        "type": "Point",
        "coordinates": [
          -83.32437132986969,
          74.1486277890595
        ]
      }
    },
    {
      "type": "Feature",
      "properties": {
        "norad_id": 66700,
        "name": "IRIDE FM6",
        "group": "last-30-days",
        "lat": 1.6173162826103529,
        "lon": -110.47901425347384,
        "alt_km": 513.0027646277567,
        "timestamp": "2025-12-23T16:57:11.060738+00:00",
        "meta_object_name": "IRIDE FM6",
        "meta_object_id": "2025-276AL",
        "meta_epoch": "2025-12-23T05:05:52.514304",
        "meta_mean_motion": 15.18226096,
        "meta_eccentricity": 0.00016016,
        "meta_inclination": 97.4422,
        "meta_ra_of_asc_node": 68.8236,
        "meta_arg_of_pericenter": 159.7234,
        "meta_mean_anomaly": 200.4064,
        "meta_ephemeris_type": 0,
        "meta_classification_type": "U",
        "meta_norad_cat_id": 66700,
        "meta_element_set_no": 999,
        "meta_rev_at_epoch": 371,
        "meta_bstar": 0.00058097249,
        "meta_mean_motion_dot": 0.00011832,
        "meta_mean_motion_ddot": 0,
        "tle_line1": "1 66700U 25276AL  25357.21241336  .00011832  00000+0  58097-3 0  9991",
        "tle_line2": "2 66700  97.4422  68.8236 0001601 159.7234 200.4064 15.18226096  3718"
      },
      "geometry": {
        "type": "Point",
        "coordinates": [
          -110.47901425347384,
          1.6173162826103529
        ]
      }
    },
    {
      "type": "Feature",
      "properties": {
        "norad_id": 66701,
        "name": "IRIDE FM7",
        "group": "last-30-days",
        "lat": 74.26564658391266,
        "lon": -83.07875046669172,
        "alt_km": 508.4489130817856,
        "timestamp": "2025-12-23T16:57:11.060748+00:00",
        "meta_object_name": "IRIDE FM7",
        "meta_object_id": "2025-276AM",
        "meta_epoch": "2025-12-23T03:50:07.438848",
        "meta_mean_motion": 15.17387909,
        "meta_eccentricity": 0.00030687,
        "meta_inclination": 97.442,
        "meta_ra_of_asc_node": 68.7413,
        "meta_arg_of_pericenter": 255.2211,
        "meta_mean_anomaly": 104.8683,
        "meta_ephemeris_type": 0,
        "meta_classification_type": "U",
        "meta_norad_cat_id": 66701,
        "meta_element_set_no": 999,
        "meta_rev_at_epoch": 370,
        "meta_bstar": 0.00063107157,
        "meta_mean_motion_dot": 0.00012555,
        "meta_mean_motion_ddot": 0,
        "tle_line1": "1 66701U 25276AM  25357.15980832  .00012555  00000+0  63107-3 0  9997",
        "tle_line2": "2 66701  97.4420  68.7413 0003068 255.2211 104.8683 15.17387909  3702"
      },
      "geometry": {
        "type": "Point",
        "coordinates": [
          -83.07875046669172,
          74.26564658391266
        ]
      }
    },
    {
      "type": "Feature",
      "properties": {
        "norad_id": 66702,
        "name": "IRIDE FM8",
        "group": "last-30-days",
        "lat": 73.39734985299155,
        "lon": -84.73596639849148,
        "alt_km": 508.500627802433,
        "timestamp": "2025-12-23T16:57:11.060758+00:00",
        "meta_object_name": "IRIDE FM8",
        "meta_object_id": "2025-276AN",
        "meta_epoch": "2025-12-23T03:49:52.129632",
        "meta_mean_motion": 15.17392797,
        "meta_eccentricity": 0.00028992,
        "meta_inclination": 97.4398,
        "meta_ra_of_asc_node": 68.7338,
        "meta_arg_of_pericenter": 262.7183,
        "meta_mean_anomaly": 97.3721,
        "meta_ephemeris_type": 0,
        "meta_classification_type": "U",
        "meta_norad_cat_id": 66702,
        "meta_element_set_no": 999,
        "meta_rev_at_epoch": 370,
        "meta_bstar": 0.00054905218,
        "meta_mean_motion_dot": 0.00010914,
        "meta_mean_motion_ddot": 0,
        "tle_line1": "1 66702U 25276AN  25357.15963113  .00010914  00000+0  54905-3 0  9994",
        "tle_line2": "2 66702  97.4398  68.7338 0002899 262.7183  97.3721 15.17392797  3705"
      },
      "geometry": {
        "type": "Point",
        "coordinates": [
          -84.73596639849148,
          73.39734985299155
        ]
      }
    },
    {
      "type": "Feature",
      "properties": {
        "norad_id": 66703,
        "name": "PELICAN-6",
        "group": "last-30-days",
        "lat": 67.05117314237324,
        "lon": -92.74631781838221,
        "alt_km": 507.76590400753685,
        "timestamp": "2025-12-23T16:57:11.060770+00:00",
        "meta_object_name": "PELICAN-6",
        "meta_object_id": "2025-276AP",
        "meta_epoch": "2025-12-23T03:48:02.112192",
        "meta_mean_motion": 15.17340658,
        "meta_eccentricity": 9.601e-05,
        "meta_inclination": 97.4407,
        "meta_ra_of_asc_node": 68.7373,
        "meta_arg_of_pericenter": 243.0945,
        "meta_mean_anomaly": 117.0191,
        "meta_ephemeris_type": 0,
        "meta_classification_type": "U",
        "meta_norad_cat_id": 66703,
        "meta_element_set_no": 999,
        "meta_rev_at_epoch": 370,
        "meta_bstar": 0.00043500698,
        "meta_mean_motion_dot": 8.617e-05,
        "meta_mean_motion_ddot": 0,
        "tle_line1": "1 66703U 25276AP  25357.15835778  .00008617  00000+0  43501-3 0  9997",
        "tle_line2": "2 66703  97.4407  68.7373 0000960 243.0945 117.0191 15.17340658  3701"
      },
      "geometry": {
        "type": "Point",
        "coordinates": [
          -92.74631781838221,
          67.05117314237324
        ]
      }
    }
  ]
}